{
    "links": {
        "self": "http://www.neowsapp.com/rest/v1/neo/3843643?api_key=iIulBulltgU6a56xZRHN4H3l9WmuAYTsLGpBGhQ2"
    },
    "id": "3843643",
    "neo_reference_id": "3843643",
    "name": "(2019 QL4)",
    "designation": "2019 QL4",
    "nasa_jpl_url": "http://ssd.jpl.nasa.gov/sbdb.cgi?sstr=3843643",
    "absolute_magnitude_h": 23.2,
    "estimated_diameter": {
        "kilometers": {
            "estimated_diameter_min": 0.0608912622,
            "estimated_diameter_max": 0.1361570015
        },
        "meters": {
            "estimated_diameter_min": 60.8912622106,
            "estimated_diameter_max": 136.1570015386
        },
        "miles": {
            "estimated_diameter_min": 0.0378360645,
            "estimated_diameter_max": 0.0846040122
        },
        "feet": {
            "estimated_diameter_min": 199.7744887109,
            "estimated_diameter_max": 446.7093369279
        }
    },
    "is_potentially_hazardous_asteroid": false,
    "close_approach_data": [
        {
            "close_approach_date": "2019-08-19",
            "close_approach_date_full": "2019-Aug-19 12:45",
            "epoch_date_close_approach": 1566218700000,
            "relative_velocity": {
                "kilometers_per_second": "7.1649013998",
                "kilometers_per_hour": "25793.6450391829",
                "miles_per_hour": "16027.1679411523"
            },
            "miss_distance": {
                "astronomical": "0.0884172741",
                "lunar": "34.3943196249",
                "kilometers": "13227035.876566167",
                "miles": "8218898.9782884246"
            },
            "orbiting_body": "Earth"
        },
        {
            "close_approach_date": "2123-09-21",
            "close_approach_date_full": "2123-Sep-21 02:28",
            "epoch_date_close_approach": 4850936880000,
            "relative_velocity": {
                "kilometers_per_second": "17.9218362789",
                "kilometers_per_hour": "64518.6106042056",
                "miles_per_hour": "40089.3555723743"
            },
            "miss_distance": {
                "astronomical": "0.4469964563",
                "lunar": "173.8816215007",
                "kilometers": "66869717.760028081",
                "miles": "41550915.8745102778"
            },
            "orbiting_body": "Earth"
        },
        {
            "close_approach_date": "2126-07-09",
            "close_approach_date_full": "2126-Jul-09 05:12",
            "epoch_date_close_approach": 4939247520000,
            "relative_velocity": {
                "kilometers_per_second": "11.2004819669",
                "kilometers_per_hour": "40321.7350810045",
                "miles_per_hour": "25054.3581118608"
            },
            "miss_distance": {
                "astronomical": "0.2540406137",
                "lunar": "98.8217987293",
                "kilometers": "38003934.703012819",
                "miles": "23614550.0032181422"
            },
            "orbiting_body": "Earth"
        }
    ],
    "orbital_data": {
        "orbit_id": "12",
        "orbit_determination_date": "2019-09-25 05:57:41",
        "first_observation_date": "2019-08-27",
        "last_observation_date": "2019-09-20",
        "data_arc_in_days": 24,
        "observations_used": 112,
        "orbit_uncertainty": "7",
        "minimum_orbit_intersection": ".0822547",
        "jupiter_tisserand_invariant": "3.659",
        "epoch_osculation": "2459000.5",
        "eccentricity": ".4668501870706747",
        "semi_major_axis": "2.030721974445695",
        "inclination": "6.951638198461283",
        "ascending_node_longitude": "337.8194347077234",
        "orbital_period": "1056.997911963444",
        "perihelion_distance": "1.082679040787192",
        "perihelion_argument": "335.1062103985912",
        "aphelion_distance": "2.978764908104198",
        "perihelion_time": "2458704.353720113381",
        "mean_anomaly": "100.8636436765923",
        "mean_motion": ".3405872385606476",
        "equinox": "J2000",
        "orbit_class": {
            "orbit_class_type": "AMO",
            "orbit_class_description": "Near-Earth asteroid orbits similar to that of 1221 Amor",
            "orbit_class_range": "1.017 AU < q (perihelion) < 1.3 AU"
        }
    },
    "is_sentry_object": false
}